{"type":"FeatureCollection","features":[{"type":"Feature","id":2255,"geometry":{"type":"Point","coordinates":[-121.59297499964747,38.171622221711722]},"properties":{"OBJECTID":2255,"DIST":"03","CO":"SAC","PM":"5.86","BRIDGE":"24 0051","CITY":"ISLETON","LAT":38.171622220000003,"LON":-121.592975,"NAME":"SACRAMENTO RIVER (ISLETON)","LOC":"03-SAC-160-5.86-IST","YRBLT":"1923","FAC":"STATE ROUTE 160","DESIGN_MAIN":"16: Movable - Bascule","MATERIAL_MAIN":"3: Steel","INTERSEC":"SACRAMENTO RIVER","RTE":"00160","DATA_EXTRACTED":1710235586000}},{"type":"Feature","id":2286,"geometry":{"type":"Point","coordinates":[-121.70156388928271,38.105130556318336]},"properties":{"OBJECTID":2286,"DIST":"03","CO":"SAC","PM":"L6.98","BRIDGE":"24 0121","CITY":"00000","LAT":38.105130559999999,"LON":-121.70156389,"NAME":"THREE MILE SLOUGH","LOC":"03-SAC-160-L6.98","YRBLT":"1949","FAC":"STATE ROUTE 160","DESIGN_MAIN":"15: Movable - Lift","MATERIAL_MAIN":"3: Steel","INTERSEC":"THREE MILE SLOUGH","RTE":"00160","DATA_EXTRACTED":1710235586000}}]}