{"type":"FeatureCollection","features":[{"type":"Feature","id":5982,"geometry":{"type":"MultiPolygon","coordinates":[[[[-121.61994099974869,38.156557999826745],[-121.6193900001029,38.156485000162505],[-121.61917199964466,38.156707999797568],[-121.61832300007302,38.156509999968648],[-121.61830399980644,38.156585000042021],[-121.61827000036958,38.156664999705576],[-121.61821799959273,38.156750999864144],[-121.61784100002417,38.157180000339295],[-121.61738800028765,38.157784999907754],[-121.61726199989094,38.157932999782957],[-121.61714999973795,38.158043999845411],[-121.61702800043754,38.158148999978025],[-121.61670500039736,38.158388999915282],[-121.61604900027123,38.15881399989695],[-121.61549500025235,38.15853299992223],[-121.61214900039784,38.159968999914788],[-121.6120620003592,38.15971099992543],[-121.611443000043,38.157854999790736],[-121.61141299990578,38.157812999869016],[-121.6113660000501,38.157783000212888],[-121.61133699973777,38.157772000123948],[-121.61124300002646,38.157542999693838],[-121.61113199969837,38.157275999848146],[-121.60184399997225,38.161425000071162],[-121.60150099984058,38.16175199987881],[-121.6007900003612,38.162049999754615],[-121.60027800017511,38.161863999922858],[-121.59936299958291,38.162214999709505],[-121.59973300037707,38.162574000298903],[-121.59300999980758,38.16553299978122],[-121.59327900031941,38.165657000073502],[-121.59501599982077,38.166455999792092],[-121.59543400029548,38.166648999762501],[-121.5962300001637,38.167016000298261],[-121.59729100034578,38.167599000142808],[-121.59778500009018,38.167552999917469],[-121.59888300008218,38.16745200018066],[-121.59949099962941,38.167280000285807],[-121.59971199956236,38.167163999799094],[-121.59999699996771,38.166984000042177],[-121.60020100018221,38.166884999668625],[-121.60077000026972,38.166571999992925],[-121.60096000024049,38.166506000327466],[-121.60100600027127,38.166471999684639],[-121.60192199979004,38.165963000234044],[-121.60267900019852,38.165486000276026],[-121.60366000001464,38.165088000230874],[-121.60394500042,38.165005000322047],[-121.60454499957132,38.164772999692872],[-121.60568399957118,38.164469999808134],[-121.60614999972651,38.164384000278055],[-121.60728100022877,38.164175999681241],[-121.60835800030438,38.164051999695047],[-121.60995699971349,38.163852999914333],[-121.61166599962576,38.163784999669531],[-121.61206099963596,38.163843000152376],[-121.61220299992618,38.163856000266442],[-121.61350099993473,38.163825000153601],[-121.61495700012702,38.163917000336042],[-121.616239000242,38.164014000272239],[-121.61637499978615,38.163764000006964],[-121.61641599979401,38.163674999990938],[-121.61684000011655,38.162958000247535],[-121.61688199994934,38.162734999949734],[-121.61994099974869,38.156557999826745]]],[[[-121.59613599955406,38.156780999944843],[-121.59279399989751,38.154910000042761],[-121.5928070003163,38.154973999837871],[-121.59281999983678,38.155138000027769],[-121.59281200033917,38.155301999848852],[-121.59273600017119,38.155722999953731],[-121.59268799959231,38.155939000337632],[-121.59263499988884,38.156114000110819],[-121.59256999959152,38.15628699972816],[-121.59249400032185,38.156457999910209],[-121.59227599986366,38.156904000076167],[-121.59221300011447,38.157009999942467],[-121.59209400028877,38.157180000339295],[-121.5919550003716,38.157342000099369],[-121.59174199993625,38.157552000116056],[-121.59166999996624,38.157604000100747],[-121.59158799995048,38.15764600014284],[-121.59129599987243,38.157763999929792],[-121.59119299994026,38.157797000195238],[-121.59110699972653,38.157818000163701],[-121.59097899968003,38.157840999819513],[-121.59032400027712,38.157925000312829],[-121.59021100029921,38.157935000180139],[-121.59004100041992,38.157943999847603],[-121.58981299991595,38.157946000244486],[-121.58964100038683,38.157939000267923],[-121.58947200033242,38.157925000312829],[-121.58833800035542,38.157793000099616],[-121.58811400004943,38.157777999915794],[-121.58772900008495,38.157765000130681],[-121.58761299973399,38.157777999915794],[-121.58755199963463,38.157791999899111],[-121.58747299999193,38.157821000057794],[-121.59256799994171,38.160652999722572],[-121.59613599955406,38.156780999944843]]]]},"properties":{"OBJECTID":5982,"GEOID":"0636882","STATE":"06","PLACE":"36882","BASENAME":"Isleton","NAME":"Isleton city","AREALAND":"1138589","AREAWATER":"133509","CENTLAT":"+38.1617120","CENTLON":"-121.6052591","INTPTLAT":"+38.1612520","INTPTLON":"-121.6049577"}}]}