{"type":"FeatureCollection","features":[{"type":"Feature","id":624443,"geometry":{"type":"LineString","coordinates":[[-121.5402759831772,38.202893793431116],[-121.54020280347203,38.202633598768962],[-121.54017900854393,38.202407549654502],[-121.54019685474,38.202163654652345],[-121.54029798214385,38.201979247329078],[-121.54054187703522,38.201776992622754],[-121.5407024907188,38.201705609003668],[-121.54114863937737,38.201509303894838],[-121.54196360525924,38.2012118712749],[-121.54296892744428,38.200819260318497],[-121.54361733091055,38.20058131288225],[-121.54398952050407,38.200456318515471]]},"properties":{"OBJECTID":624443,"permanent_identifier":"{4564D5AA-ACB9-48C0-918A-C970AF351603}","gnis_name":"Georgiana Slough","ftype":558,"fcode":55800,"reachcode":"18040012021080","resolution":2}},{"type":"Feature","id":2412750,"geometry":{"type":"LineString","coordinates":[[-121.59210724159524,38.134011472980426],[-121.59172585368248,38.133662442788591],[-121.58844705243888,38.130594909832233],[-121.58802991906676,38.130273043009915],[-121.58681411873498,38.129747709278945],[-121.58429585200702,38.129735109303162],[-121.58190371879239,38.130111109684151],[-121.58078765154914,38.130203309813197],[-121.57957271798206,38.130197043423138]]},"properties":{"OBJECTID":2412750,"permanent_identifier":"{E370D433-4C50-428C-8F23-5F1AC3099FB1}","gnis_name":"Georgiana Slough","ftype":558,"fcode":55800,"reachcode":"18040012027522","resolution":2}},{"type":"Feature","id":2412755,"geometry":{"type":"LineString","coordinates":[[-121.540770737253,38.208805065073292],[-121.5408083775245,38.208735727471407],[-121.54097969830136,38.208402602727318],[-121.54110343130317,38.20797429887989],[-121.54114150131514,38.207593585685281],[-121.54118909117133,38.207184318047545],[-121.54122716118333,38.206632284060952],[-121.54114150131514,38.206108802043452],[-121.54098802673433,38.205262903053679],[-121.54075602826649,38.20444199012961],[-121.54042290447585,38.203478307527178],[-121.54030987960792,38.203014312556412],[-121.5402759831772,38.202893793431116]]},"properties":{"OBJECTID":2412755,"permanent_identifier":"{BF6C6BAA-307E-4646-83C0-7F5C335B8BEF}","gnis_name":"Georgiana Slough","ftype":558,"fcode":55800,"reachcode":"18040012021080","resolution":2}},{"type":"Feature","id":3309938,"geometry":{"type":"LineString","coordinates":[[-121.68834253602178,38.14700763668008],[-121.69285886810606,38.131494034731226],[-121.69814426916462,38.124921833941372]]},"properties":{"OBJECTID":3309938,"permanent_identifier":"113914047","gnis_name":"Sacramento River","ftype":558,"fcode":55800,"reachcode":"18020163001669","resolution":2}},{"type":"Feature","id":5541878,"geometry":{"type":"LineString","coordinates":[[-121.5717624334408,38.181825523212012],[-121.57195732855259,38.181809430737104],[-121.57244987565608,38.181766599790187],[-121.57294242484063,38.181766599790187],[-121.57350991223255,38.181764003726521],[-121.57397035158301,38.181770168355094],[-121.57466991393659,38.181738045538886],[-121.57548012041664,38.181723769635965],[-121.57594054624019,38.181705923526458],[-121.57627604973172,38.181666661906597],[-121.57666866084263,38.181548878555873],[-121.57701844253967,38.181413249651534],[-121.57731825363908,38.181295466709081],[-121.57758951248965,38.181156267102274],[-121.57784887387616,38.180976618430321],[-121.57803923017931,38.180798159398137],[-121.57825338141055,38.180524520821308],[-121.57851512353852,38.180120011907547],[-121.57875306969785,38.179620325366933],[-121.57903860467286,38.179001665182383],[-121.57931224218379,38.178418696859268],[-121.5794591145773,38.178048067500242],[-121.57954477548604,38.177791084533418],[-121.57971609730346,38.177424648138469],[-121.57993024749418,38.177067728597137],[-121.58007777438348,38.176801229168902],[-121.58025385456222,38.176477621877446],[-121.58036806771979,38.176196845759172],[-121.58048228295844,38.175882757906805],[-121.58053939057773,38.17562577466559],[-121.58057270222842,38.175283131660933],[-121.58052511341279,38.174959525807907],[-121.58043469310223,38.174450320833863],[-121.58038710428657,38.17419333990334],[-121.58034427383222,38.17390780401886],[-121.58030144233736,38.173665098659974],[-121.580220541871,38.173360527256499],[-121.58014915812723,38.172965537069906],[-121.58009680886924,38.172651448379078],[-121.5800872911061,38.172285011498325],[-121.58011584439548,38.172004235587075],[-121.58017771141662,38.171690146843574],[-121.58030144233736,38.17136653894282],[-121.58042041593727,38.170990585111454],[-121.58056318342476,38.170614629340804],[-121.58074402300532,38.170095907125287],[-121.58092010214351,38.169700916424979],[-121.58111521888901,38.169315444111184],[-121.58134840564652,38.168901417021871],[-121.58156255687776,38.16855877512517],[-121.58178146751087,38.168225650650939],[-121.58206224412454,38.167835419174551],[-121.58231446640831,38.167492776357328],[-121.58247151106077,38.167259588429339],[-121.58265710900261,38.166935982127882],[-121.58280463589195,38.166588581186474],[-121.58293788457577,38.166231660933384],[-121.58303782264944,38.165874742205084],[-121.58313300132127,38.16550830643304],[-121.58324721551938,38.165008618692852],[-121.58334715255253,38.164613628241227],[-121.58347088451376,38.164299539557113],[-121.58368979514684,38.163814128672804],[-121.58388966921314,38.163433415328861],[-121.58415141134108,38.162852826760549],[-121.58448929453357,38.162243685587271],[-121.5846463381455,38.161977185132656],[-121.58480338279794,38.161672613978631],[-121.5849651858117,38.161349007420824],[-121.58534827603786,38.160556931975805],[-121.58606652221727,38.158945645162227],[-121.58689492243167,38.157617644900746],[-121.58765852236002,38.15732751131354],[-121.58917505570419,38.157310645148755],[-121.59046625624038,38.157414110916257],[-121.59139572246718,38.157196444566878],[-121.59224185650001,38.156097444337682],[-121.59229025589154,38.154742444177508],[-121.5915441223644,38.152955444053994],[-121.59075745588166,38.152136044510513],[-121.58967772199938,38.151471710874127],[-121.58834145490161,38.150821910898188],[-121.58717505495491,38.15003324458295],[-121.58678772143172,38.149306844125206],[-121.58675885494165,38.148496511146739],[-121.58695412152404,38.147618710294324],[-121.58748132152633,38.1468680442673],[-121.5881602542558,38.146348043464968],[-121.58914252133231,38.146271843765241],[-121.59002652143249,38.146669710097456],[-121.59096125484164,38.147913310302158],[-121.5920630553253,38.149739843726749],[-121.59313565634801,38.150773843676255],[-121.59410652333567,38.151296043498839],[-121.59530885603778,38.151380710177911],[-121.59662832267604,38.15116771035229],[-121.59771092322907,38.150511710120192],[-121.59873825582663,38.149256309608184],[-121.60020785589148,38.147241443369289]]},"properties":{"OBJECTID":5541878,"permanent_identifier":"{776A2DC7-63C4-41EB-A5E2-FAB19525D840}","gnis_name":"Georgiana Slough","ftype":558,"fcode":55800,"reachcode":"18040012027529","resolution":2}},{"type":"Feature","id":5582508,"geometry":{"type":"LineString","coordinates":[[-121.55227609276689,38.283862471908236],[-121.55208906513154,38.283701258064447],[-121.54730133164354,38.28098465783858],[-121.54033546217316,38.275043724453312],[-121.53130745959623,38.268357324299025],[-121.52141125742563,38.260820057839531],[-121.51775692335325,38.257956658569483],[-121.51475952304365,38.255820658276889],[-121.51349645646174,38.254386058101844],[-121.51138345477678,38.251761724788246],[-121.51097692132299,38.250577658389751],[-121.51088945508803,38.249919858268441],[-121.5107849220169,38.248958458067648],[-121.51076112084561,38.247639525259146],[-121.51089845466531,38.247121858333422]]},"properties":{"OBJECTID":5582508,"permanent_identifier":"113888493","gnis_name":"Sacramento River","ftype":558,"fcode":55800,"reachcode":"18020163004320","resolution":2}},{"type":"Feature","id":7141236,"geometry":{"type":"LineString","coordinates":[[-121.68470778167487,38.086620957869066],[-121.6853247287623,38.087014831665762],[-121.68548259543651,38.089410231869159],[-121.68568486273064,38.092479098554058],[-121.68577166406446,38.098475898991403],[-121.68586233098151,38.099193233110682],[-121.68547673098773,38.101931032650363],[-121.68440866461151,38.105889100673735],[-121.68330046484469,38.109908034191427],[-121.68302826431099,38.112810900097081],[-121.68297993151364,38.114058633621298],[-121.68355566513634,38.115170100867743]]},"properties":{"OBJECTID":7141236,"permanent_identifier":"166452033","gnis_name":"Threemile Slough","ftype":558,"fcode":55800,"reachcode":"18020163019069","resolution":2}},{"type":"Feature","id":7737632,"geometry":{"type":"LineString","coordinates":[[-121.57957271798206,38.130197043423138],[-121.57900368955949,38.130197810352016],[-121.57751556070835,38.129974321853823]]},"properties":{"OBJECTID":7737632,"permanent_identifier":"{B7D18C12-C31E-4770-904C-E4684D7C7E1C}","gnis_name":"Georgiana Slough","ftype":558,"fcode":55800,"reachcode":"18040012027533","resolution":2}},{"type":"Feature","id":8448425,"geometry":{"type":"LineString","coordinates":[[-121.54398952050407,38.200456318515471],[-121.54476872115644,38.200058918245837],[-121.54556992077548,38.199030118088857],[-121.54664985444026,38.197459118133878],[-121.54713040106682,38.19643797382453]]},"properties":{"OBJECTID":8448425,"permanent_identifier":"{10A46DAD-561E-414F-B379-4A822293640C}","gnis_name":"Georgiana Slough","ftype":558,"fcode":55800,"reachcode":"18040012027511","resolution":2}},{"type":"Feature","id":10955020,"geometry":{"type":"LineString","coordinates":[[-121.55789513163981,38.205780562975427],[-121.5579027233748,38.204742918121369],[-121.5581107229699,38.20093931678884],[-121.56020345609598,38.196889116493878],[-121.56279192348067,38.19464324978086],[-121.56437032384603,38.193553649465734],[-121.57221792401224,38.191311714952185],[-121.58156285759205,38.187229314315154],[-121.58349925883134,38.185274714110292],[-121.58836525919449,38.180058646389561],[-121.592348459193,38.17432231228328],[-121.59525565874469,38.170221311899496],[-121.59819632498662,38.167319444737188],[-121.60459505876547,38.164218910535304],[-121.61115812613642,38.163427643483573],[-121.61692672822343,38.163495643237241],[-121.62043912827592,38.164436110051561]]},"properties":{"OBJECTID":10955020,"permanent_identifier":"113900827","gnis_name":"Sacramento River","ftype":558,"fcode":55800,"reachcode":"18020163001885","resolution":2}},{"type":"Feature","id":12037058,"geometry":{"type":"LineString","coordinates":[[-121.52303504379645,38.230518453967541],[-121.52307615736994,38.230486364099193],[-121.52329982740486,38.230238899734537],[-121.52348542534671,38.230019988657261],[-121.5236237351872,38.229876243587384],[-121.52404530643621,38.229414081097985],[-121.52424209427907,38.229234766450062],[-121.52447528103659,38.229063446195276],[-121.52475129824843,38.22887308861187],[-121.52503207486214,38.228692250653076],[-121.52527002102146,38.228549482192342],[-121.52556031435775,38.228392437706148],[-121.52578398543321,38.228292500054991],[-121.52601641260098,38.228178715611257],[-121.5261699329653,38.228085507281286],[-121.52634125478272,38.227914185136932],[-121.52644595017716,38.227666721829515],[-121.52651257555961,38.227409739025575],[-121.52657872437756,38.227040903071781],[-121.52664059035817,38.22686006464486],[-121.52678335784569,38.226603082260624],[-121.52692136697185,38.226441278676944],[-121.52709268774876,38.226298511519857],[-121.52732001109801,38.226201068198755],[-121.52745484139331,38.22614386619712],[-121.52775941293507,38.226153384200018],[-121.52804494895059,38.226229527361042],[-121.5283304839256,38.226438918803716],[-121.52860650217799,38.22661975746022],[-121.52918708989111,38.226886257692556],[-121.52987237507973,38.227228900698186],[-121.5302626064897,38.227381186323669],[-121.53066235670332,38.227447811184589],[-121.53096692720456,38.227485881688835],[-121.53130005307628,38.227447811184589],[-121.53160462253699,38.227371668481418],[-121.53191871184193,38.227266971317015],[-121.53228038996249,38.227048061103794],[-121.5326230325568,38.226781561464321],[-121.53295615738797,38.226429401655558],[-121.53338445985047,38.225886883734965],[-121.5337651734973,38.225410991764335],[-121.53418395923717,38.224963653612171],[-121.53465033275219,38.224621010562849],[-121.53505960072894,38.224421135386585],[-121.53563067171947,38.224249815238274],[-121.53645872335504,38.224040422398922],[-121.53722966945239,38.223859583052231],[-121.53803868660223,38.223659708236291],[-121.53899047019902,38.223526458053882],[-121.53980900511202,38.223412244351756],[-121.54097018261932,38.223259958591768],[-121.54241025753616,38.223140320685751],[-121.54273098336598,38.223088636526349],[-121.54307362700082,38.223031529354024],[-121.54334012540902,38.222964904535488],[-121.54354951827898,38.222860208385548],[-121.54375891114891,38.222660333276217],[-121.54395878625571,38.22239383472855],[-121.54402541059765,38.222184442269288],[-121.54404444612389,38.22176565717772],[-121.54396830297833,38.221327835680576],[-121.54353999947531,38.220100033572088],[-121.54330205435652,38.219481373894084],[-121.54318784015841,38.219043553365637],[-121.54317832239529,38.218729463884721],[-121.54320687568465,38.218434410257331],[-121.54320687568465,38.217996589151603],[-121.54312121477595,38.217644430144183],[-121.54292133966914,38.217282751905159],[-121.54262628797154,38.216892519137403],[-121.542378821968,38.216616503103943],[-121.54208376922989,38.216407110368024],[-121.54150318047623,38.216035914011343],[-121.5407703075125,38.215683754507779],[-121.54013261113954,38.215322075516227],[-121.53946636147718,38.21498895148644],[-121.53904757677783,38.214770041116623],[-121.53863830880107,38.214522577244871],[-121.53838132607493,38.214313184206496],[-121.53808627437735,38.214027649429525],[-121.53766748967797,38.213580309959291],[-121.53735339933255,38.213152007148203],[-121.53688702581753,38.212599973455802],[-121.53662052532826,38.212333473215132],[-121.53633498931273,38.212000347768296],[-121.53605897314142,38.211714812092609],[-121.53592572341705,38.211486384217046],[-121.53592572341705,38.211219884804123],[-121.53606849090454,38.21102001042167],[-121.53640152104715,38.210818053090598],[-121.5369294202882,38.210748047800152],[-121.53784832717746,38.210639296805844],[-121.53867638089412,38.210410868007507],[-121.53953298581908,38.210087261223713],[-121.54005646695343,38.209706547634418],[-121.54045621716705,38.209335351439279],[-121.54062753794393,38.209068851508569],[-121.540770737253,38.208805065073292]]},"properties":{"OBJECTID":12037058,"permanent_identifier":"113900903","gnis_name":"Georgiana Slough","ftype":558,"fcode":55800,"reachcode":"18040012021080","resolution":2}},{"type":"Feature","id":12265550,"geometry":{"type":"LineString","coordinates":[[-121.51089845466531,38.247121858333422],[-121.51223172190402,38.24510085775713],[-121.51414785458442,38.243067257378137],[-121.51533972159712,38.241763656999886],[-121.51726232119542,38.240029723753942]]},"properties":{"OBJECTID":12265550,"permanent_identifier":"113900823","gnis_name":"Sacramento River","ftype":558,"fcode":55800,"reachcode":"18020163006261","resolution":2}},{"type":"Feature","id":12711206,"geometry":{"type":"LineString","coordinates":[[-121.54713040106682,38.19643797382453],[-121.54732525455729,38.196023917663553],[-121.54775772123625,38.195589117480658],[-121.55073272093311,38.194059050746951],[-121.55329325414607,38.192048517217771],[-121.5545139220952,38.191236116716844],[-121.5566774552255,38.19011844931503],[-121.55740005499855,38.189669516178526]]},"properties":{"OBJECTID":12711206,"permanent_identifier":"{CDF2C3B5-916B-473E-9C69-3782D5E442B1}","gnis_name":"Georgiana Slough","ftype":558,"fcode":55800,"reachcode":"18040012027511","resolution":2}},{"type":"Feature","id":12976023,"geometry":{"type":"LineString","coordinates":[[-121.63213625209742,38.170410478839905],[-121.63260406467073,38.170697642418673],[-121.63610446528686,38.172331109469802],[-121.63880006603684,38.172869309084959],[-121.64077133244385,38.172892108803957],[-121.64343186616252,38.172850508636742],[-121.64696193343924,38.172891241708022],[-121.65221893416691,38.173784308267294],[-121.65632666837824,38.174845041215455],[-121.65892133526364,38.17588830709294],[-121.6638585362366,38.17674104037129],[-121.66718906970162,38.177683907147866]]},"properties":{"OBJECTID":12976023,"permanent_identifier":"113914061","gnis_name":"Sacramento River","ftype":558,"fcode":55800,"reachcode":"18020163001885","resolution":2}},{"type":"Feature","id":13425029,"geometry":{"type":"LineString","coordinates":[[-121.55842672685711,38.237381653664414],[-121.55902866008162,38.236224719618825],[-121.55884746047637,38.233854919537613],[-121.55678952592388,38.230323253188061],[-121.55626245910992,38.228158919140064],[-121.5563098585484,38.225761918927638],[-121.55719625916016,38.220318452132439],[-121.55782445754016,38.215441051810153],[-121.5578359148584,38.21387494996528]]},"properties":{"OBJECTID":13425029,"permanent_identifier":"{5FFAFB41-54E7-4CD3-B80B-7518C3C75F66}","gnis_name":"Sacramento River","ftype":558,"fcode":55800,"reachcode":"18020163001885","resolution":2}},{"type":"Feature","id":13832810,"geometry":{"type":"LineString","coordinates":[[-121.60020785589148,38.147241443369289],[-121.60100332320955,38.14622004285004],[-121.60113032244708,38.145411709114917],[-121.60084865617691,38.144404909892693],[-121.60008605620162,38.143480309404026],[-121.59858032255826,38.141789909719265],[-121.59719972143469,38.139379109429235],[-121.59562452175149,38.137247642619329],[-121.59402585386782,38.135767309716329],[-121.59210724159524,38.134011472980426]]},"properties":{"OBJECTID":13832810,"permanent_identifier":"{1F2BB9A4-6249-4F77-97AF-BE114650038E}","gnis_name":"Georgiana Slough","ftype":558,"fcode":55800,"reachcode":"18040012027522","resolution":2}},{"type":"Feature","id":14997148,"geometry":{"type":"LineString","coordinates":[[-121.5578359148584,38.21387494996528],[-121.55789513163981,38.205780562975427]]},"properties":{"OBJECTID":14997148,"permanent_identifier":"{740339ED-E3BF-40D4-B4C0-B9E2FFB0FEDD}","gnis_name":"Sacramento River","ftype":558,"fcode":55800,"reachcode":"18020163001885","resolution":2}},{"type":"Feature","id":17018821,"geometry":{"type":"LineString","coordinates":[[-121.62043912827592,38.164436110051561],[-121.62383732869777,38.165405109852344],[-121.62607886336714,38.166100709181329],[-121.62790006294171,38.16723990955402],[-121.62983886365203,38.169000242673754],[-121.63213625209742,38.170410478839905]]},"properties":{"OBJECTID":17018821,"permanent_identifier":"{EED96EF8-2C95-4A88-A4F1-8B6C4CB0306D}","gnis_name":"Sacramento River","ftype":558,"fcode":55800,"reachcode":"18020163001885","resolution":2}},{"type":"Feature","id":17652397,"geometry":{"type":"LineString","coordinates":[[-121.55740005499855,38.189669516178526],[-121.55853517025449,38.18866137912967],[-121.55894048524313,38.188230406658121],[-121.55935094255007,38.187809241719101],[-121.55976853687872,38.187466600393215],[-121.56008976528638,38.187191772348591],[-121.56033246980702,38.186956205328968],[-121.56062514388475,38.18673134578529],[-121.56092495498417,38.186570732685794],[-121.56129972093953,38.186413688387489],[-121.56179226908355,38.186235228769739],[-121.56252752278876,38.18601393862906],[-121.56298081055003,38.185871170677082],[-121.56353403534449,38.185721264885153],[-121.56411581238777,38.185542805206815],[-121.56480466660753,38.185282254109197],[-121.56529007772986,38.185082380489192],[-121.56567198070687,38.184889643963125],[-121.56621806743908,38.184600538217957],[-121.56716747237553,38.184015191283557],[-121.56802407834105,38.183501228093881],[-121.56886640818212,38.183022956136838],[-121.56963908260617,38.182562844291766],[-121.56979805536787,38.182480114638786],[-121.5706543980783,38.182112403799401],[-121.57097580025513,38.18198075100144],[-121.5712613352301,38.181898659478321],[-121.57156828543228,38.181841553521835],[-121.5717624334408,38.181825523212012]]},"properties":{"OBJECTID":17652397,"permanent_identifier":"{9CF64481-83D2-4A1C-AF2E-7D3A75FCE6D3}","gnis_name":"Georgiana Slough","ftype":558,"fcode":55800,"reachcode":"18040012027529","resolution":2}},{"type":"Feature","id":18105314,"geometry":{"type":"LineString","coordinates":[[-121.7100894687425,38.112200698381223],[-121.71710573646989,38.107134831049507],[-121.72449606987338,38.101888830306123],[-121.73110953758246,38.097148295890435]]},"properties":{"OBJECTID":18105314,"permanent_identifier":"113903559","gnis_name":"Sacramento River","ftype":558,"fcode":55800,"reachcode":"18020163005216","resolution":2}},{"type":"Feature","id":18778340,"geometry":{"type":"LineString","coordinates":[[-121.69878333488013,38.123785033985257],[-121.69991606835407,38.122190500080173],[-121.70051053574825,38.121444033786346],[-121.70269753499794,38.118731499653229],[-121.70560693527871,38.115916699246647],[-121.70740286861032,38.114265099062308],[-121.7100894687425,38.112200698381223]]},"properties":{"OBJECTID":18778340,"permanent_identifier":"113903555","gnis_name":"Sacramento River","ftype":558,"fcode":55800,"reachcode":"18020163001669","resolution":2}},{"type":"Feature","id":20124650,"geometry":{"type":"LineString","coordinates":[[-121.70225941509858,38.106870249039737],[-121.70627395805774,38.109342003984914],[-121.70961806944896,38.112012298225466],[-121.7100894687425,38.112200698381223]]},"properties":{"OBJECTID":20124650,"permanent_identifier":"113903557","gnis_name":"Threemile Slough","ftype":558,"fcode":55800,"reachcode":"18020163019054","resolution":2}},{"type":"Feature","id":20618413,"geometry":{"type":"LineString","coordinates":[[-121.51726232119542,38.240029723753942],[-121.51733111296933,38.239207102653893]]},"properties":{"OBJECTID":20618413,"permanent_identifier":"e8120572-11e8-4201-aefc-fb99d49059a8","gnis_name":"Georgiana Slough","ftype":558,"fcode":55800,"reachcode":"18020163007636","resolution":2}},{"type":"Feature","id":21922028,"geometry":{"type":"LineString","coordinates":[[-121.73110953758246,38.097148295890435],[-121.73689947061338,38.092949495133702],[-121.74262647111649,38.089668094572872],[-121.74795107116628,38.086786293854935],[-121.74953227160822,38.086050026608518]]},"properties":{"OBJECTID":21922028,"permanent_identifier":"113903571","gnis_name":"Sacramento River","ftype":558,"fcode":55800,"reachcode":"18020163006934","resolution":2}},{"type":"Feature","id":22311521,"geometry":{"type":"LineString","coordinates":[[-121.51726232119542,38.240029723753942],[-121.51816825470861,38.239701656494518],[-121.5223543223893,38.239394723127532],[-121.52677925606122,38.238551322102296],[-121.52959885618964,38.23816712299574],[-121.53324332392005,38.238332722094597],[-121.53982452467442,38.23985332185331],[-121.54648565923915,38.241194721518092],[-121.55156792727942,38.241677121703546],[-121.55454312675879,38.24111445465995],[-121.55670146034146,38.239582720693925],[-121.55810692814296,38.237681920744194],[-121.55842672685711,38.237381653664414]]},"properties":{"OBJECTID":22311521,"permanent_identifier":"113900825","gnis_name":"Sacramento River","ftype":558,"fcode":55800,"reachcode":"18020163001885","resolution":2}},{"type":"Feature","id":22815131,"geometry":{"type":"LineString","coordinates":[[-121.51733111296933,38.239207102653893],[-121.51738284206918,38.238992210949149],[-121.51745943992803,38.23883113451442],[-121.51752011657848,38.238502769261203],[-121.51754509979622,38.238117295754762],[-121.51750940948514,38.237738961656149],[-121.51748085515523,38.237503395550725],[-121.51745587089692,38.237246413177246],[-121.51743088663864,38.237032261867689],[-121.51739519424653,38.236875216900742],[-121.51736545162692,38.23671103494673],[-121.51735117446195,38.236501642019256],[-121.51737021102876,38.236273214317954],[-121.51741779880388,38.236059061776828],[-121.51747966582504,38.235873463705374],[-121.51760815614756,38.235673590026892],[-121.51776519975948,38.235487991788901],[-121.51787941499812,38.235359500423584],[-121.51814115608556,38.235126313172458],[-121.51844096718499,38.234797948351982],[-121.51880264634607,38.234460064316814],[-121.51938799346102,38.233941341544387],[-121.519868644141,38.233465449145015],[-121.52046826842088,38.232918172836456],[-121.52071340779077,38.232688548730408],[-121.52126300840578,38.232147228323022],[-121.5218388377576,38.23153808540723],[-121.52226238185881,38.231138335737747],[-121.52268592700052,38.23079093446902],[-121.52303504379645,38.230518453967541]]},"properties":{"OBJECTID":22815131,"permanent_identifier":"{89EBBA75-BF3C-4C9B-BE94-2780F30FFCEC}","gnis_name":"Georgiana Slough","ftype":558,"fcode":55800,"reachcode":"18040012021080","resolution":2}},{"type":"Feature","id":24842405,"geometry":{"type":"LineString","coordinates":[[-121.69814426916462,38.124921833941372],[-121.69878333488013,38.123785033985257]]},"properties":{"OBJECTID":24842405,"permanent_identifier":"113903553","gnis_name":"Sacramento River","ftype":558,"fcode":55800,"reachcode":"18020163001669","resolution":2}},{"type":"Feature","id":25066849,"geometry":{"type":"LineString","coordinates":[[-121.66718906970162,38.177683907147866],[-121.67433493696068,38.169517639260448],[-121.67964627020383,38.161522637950306],[-121.68510973677969,38.155904104226579],[-121.68834253602178,38.14700763668008]]},"properties":{"OBJECTID":25066849,"permanent_identifier":"113914063","gnis_name":"Sacramento River","ftype":558,"fcode":55800,"reachcode":"18020163001669","resolution":2}},{"type":"Feature","id":25521974,"geometry":{"type":"LineString","coordinates":[[-121.68355566513634,38.115170100867743],[-121.68481273200008,38.115122834554001],[-121.68590146545964,38.115073633707588],[-121.68903533178373,38.113635300481995],[-121.69068886597681,38.112425899960094],[-121.69299753276859,38.109320633547902],[-121.69364917437622,38.107505417172995],[-121.69453586529696,38.105838432926866],[-121.69602593266264,38.105056899174556],[-121.69812333258301,38.105080099184796],[-121.70012773374998,38.105961832487338],[-121.70225941509858,38.106870249039737]]},"properties":{"OBJECTID":25521974,"permanent_identifier":"113903629","gnis_name":"Threemile Slough","ftype":558,"fcode":55800,"reachcode":"18020163019053","resolution":2}},{"type":"Feature","id":26671432,"geometry":{"type":"LineString","coordinates":[[-121.68137312769578,38.084492032004881],[-121.6847046382221,38.086618950543084],[-121.68470778167487,38.086620957869066]]},"properties":{"OBJECTID":26671432,"permanent_identifier":"{1D58F588-22E7-490F-BE44-36F71AB1F78E}","gnis_name":"Threemile Slough","ftype":558,"fcode":55800,"reachcode":"18040003017369","resolution":2}},{"type":"Feature","id":27987059,"geometry":{"type":"LineString","coordinates":[[-121.74953227160822,38.086050026608518],[-121.75108107190711,38.085208293712967]]},"properties":{"OBJECTID":27987059,"permanent_identifier":"113903575","gnis_name":"Sacramento River","ftype":558,"fcode":55800,"reachcode":"18020163004082","resolution":2}}]}