{"features":[{"geometry":{"coordinates":[-121.51560202265468,38.242455049611166],"type":"Point"},"properties":{"BRIDGE":"24C0005","DATA_EXTRA":1710235172000,"DESIGN_MAI":"16: Movable - Bascule","FAC":"WALNUT GROVE XING","LAT":38.24245,"LOC":"IN WALNUT GROVE","LON":-121.51558889,"NAME":"SACRAMENTO RIVER (WALNUT GROVE)","OBJECTID":29344},"type":"Feature"},{"geometry":{"coordinates":[-121.64110756890214,38.0106383538597],"type":"Point"},"properties":{"BRIDGE":"28C0489","DATA_EXTRA":1710235172000,"DESIGN_MAI":"02: Stringer/Multi-Beam ","FAC":"BETHEL ISLAND ROAD","LAT":38.01063333,"LOC":"1.5 MI N. OF E CYPRESS RD","LON":-121.64109444,"NAME":"DUTCH SLOUGH","OBJECTID":30337},"type":"Feature"}],"type":"FeatureCollection"}
