{"features":[{"geometry":{"coordinates":[-121.68655277767868,38.160150000208375],"type":"Point"},"properties":{"BRIDGE":"23 0024","DATA_EXTRACTED":1710235586000,"DESIGN_MAIN":"15: Movable - Lift","LAT":38.16015,"LOC":"04-SOL-012-26.24-RVS","LON":-121.68655278,"NAME":"SACRAMENTO RIVER (RIO VISTA)","OBJECTID":2061,"RTE":"00012"},"type":"Feature"},{"geometry":{"coordinates":[-121.60403908367465,38.23641491026491],"type":"Point"},"properties":{"BRIDGE":"23 0037","DATA_EXTRACTED":1710235586000,"DESIGN_MAIN":"00: Other","LAT":38.23641491,"LOC":"04-SOL-220-3.10","LON":-121.60403908,"NAME":"STEAMBOAT SLOUGH FERRY (J-MACK)","OBJECTID":2070,"RTE":"00220"},"type":"Feature"},{"geometry":{"coordinates":[-121.66215555594647,38.18673333285228],"type":"Point"},"properties":{"BRIDGE":"23 0245","DATA_EXTRACTED":1710235586000,"DESIGN_MAIN":"00: Other","LAT":38.18673333,"LOC":"04-SOL-084-2.49","LON":-121.66215556,"NAME":"CACHE SLOUGH FERRY","OBJECTID":2212,"RTE":"00084"},"type":"Feature"},{"geometry":{"coordinates":[-121.59297499964747,38.17162222171172],"type":"Point"},"properties":{"BRIDGE":"24 0051","DATA_EXTRACTED":1710235586000,"DESIGN_MAIN":"16: Movable - Bascule","LAT":38.17162222,"LOC":"03-SAC-160-5.86-IST","LON":-121.592975,"NAME":"SACRAMENTO RIVER (ISLETON)","OBJECTID":2255,"RTE":"00160"},"type":"Feature"},{"geometry":{"coordinates":[-121.57873333281354,38.318708332717584],"type":"Point"},"properties":{"BRIDGE":"24 0053","DATA_EXTRACTED":1710235586000,"DESIGN_MAIN":"16: Movable - Bascule","LAT":38.31870833,"LOC":"03-SAC-160-20.87","LON":-121.57873333,"NAME":"SACRAMENTO RIVER (PAINTERSVILLE)","OBJECTID":2257,"RTE":"00160"},"type":"Feature"},{"geometry":{"coordinates":[-121.70156388928271,38.105130556318336],"type":"Point"},"properties":{"BRIDGE":"24 0121","DATA_EXTRACTED":1710235586000,"DESIGN_MAIN":"15: Movable - Lift","LAT":38.10513056,"LOC":"03-SAC-160-L6.98","LON":-121.70156389,"NAME":"THREE MILE SLOUGH","OBJECTID":2286,"RTE":"00160"},"type":"Feature"},{"geometry":{"coordinates":[-121.7514777782199,38.016799999717485],"type":"Point"},"properties":{"BRIDGE":"28 0009","DATA_EXTRACTED":1710235586000,"DESIGN_MAIN":"02: Stringer/Multi-Beam ","LAT":38.0168,"LOC":"04-CC-160-0.82","LON":-121.75147778,"NAME":"SAN JOAQUIN RIVER (ANTIOCH)","OBJECTID":2717,"RTE":"00160"},"type":"Feature"}],"type":"FeatureCollection"}
