{"features":[{"geometry":{"coordinates":[[[[-121.61994099974869,38.156557999826745],[-121.6193900001029,38.156485000162505],[-121.61917199964466,38.15670799979757],[-121.61832300007302,38.15650999996865],[-121.61830399980644,38.15658500004202],[-121.61827000036958,38.156664999705576],[-121.61821799959273,38.156750999864144],[-121.61784100002417,38.157180000339295],[-121.61738800028765,38.157784999907754],[-121.61726199989094,38.15793299978296],[-121.61714999973795,38.15804399984541],[-121.61702800043754,38.158148999978025],[-121.61670500039736,38.15838899991528],[-121.61604900027123,38.15881399989695],[-121.61549500025235,38.15853299992223],[-121.61214900039784,38.15996899991479],[-121.6120620003592,38.15971099992543],[-121.611443000043,38.157854999790736],[-121.61141299990578,38.157812999869016],[-121.6113660000501,38.15778300021289],[-121.61133699973777,38.15777200012395],[-121.61124300002646,38.15754299969384],[-121.61113199969837,38.157275999848146],[-121.60184399997225,38.16142500007116],[-121.60150099984058,38.16175199987881],[-121.6007900003612,38.162049999754615],[-121.60027800017511,38.16186399992286],[-121.59936299958291,38.162214999709505],[-121.59973300037707,38.1625740002989],[-121.59300999980758,38.16553299978122],[-121.59327900031941,38.1656570000735],[-121.59501599982077,38.16645599979209],[-121.59543400029548,38.1666489997625],[-121.5962300001637,38.16701600029826],[-121.59729100034578,38.16759900014281],[-121.59778500009018,38.16755299991747],[-121.59888300008218,38.16745200018066],[-121.59949099962941,38.16728000028581],[-121.59971199956236,38.167163999799094],[-121.59999699996771,38.16698400004218],[-121.60020100018221,38.166884999668625],[-121.60077000026972,38.166571999992925],[-121.60096000024049,38.166506000327466],[-121.60100600027127,38.16647199968464],[-121.60192199979004,38.16596300023404],[-121.60267900019852,38.165486000276026],[-121.60366000001464,38.165088000230874],[-121.60394500042,38.16500500032205],[-121.60454499957132,38.16477299969287],[-121.60568399957118,38.164469999808134],[-121.60614999972651,38.164384000278055],[-121.60728100022877,38.16417599968124],[-121.60835800030438,38.16405199969505],[-121.60995699971349,38.16385299991433],[-121.61166599962576,38.16378499966953],[-121.61206099963596,38.163843000152376],[-121.61220299992618,38.16385600026644],[-121.61350099993473,38.1638250001536],[-121.61495700012702,38.16391700033604],[-121.616239000242,38.16401400027224],[-121.61637499978615,38.163764000006964],[-121.61641599979401,38.16367499999094],[-121.61684000011655,38.162958000247535],[-121.61688199994934,38.162734999949734],[-121.61994099974869,38.156557999826745]]],[[[-121.59613599955406,38.15678099994484],[-121.59279399989751,38.15491000004276],[-121.5928070003163,38.15497399983787],[-121.59281999983678,38.15513800002777],[-121.59281200033917,38.15530199984885],[-121.59273600017119,38.15572299995373],[-121.59268799959231,38.15593900033763],[-121.59263499988884,38.15611400011082],[-121.59256999959152,38.15628699972816],[-121.59249400032185,38.15645799991021],[-121.59227599986366,38.15690400007617],[-121.59221300011447,38.15700999994247],[-121.59209400028877,38.157180000339295],[-121.5919550003716,38.15734200009937],[-121.59174199993625,38.157552000116056],[-121.59166999996624,38.15760400010075],[-121.59158799995048,38.15764600014284],[-121.59129599987243,38.15776399992979],[-121.59119299994026,38.15779700019524],[-121.59110699972653,38.1578180001637],[-121.59097899968003,38.15784099981951],[-121.59032400027712,38.15792500031283],[-121.5902110002992,38.15793500018014],[-121.59004100041992,38.1579439998476],[-121.58981299991595,38.157946000244486],[-121.58964100038683,38.15793900026792],[-121.58947200033242,38.15792500031283],[-121.58833800035542,38.157793000099616],[-121.58811400004943,38.157777999915794],[-121.58772900008495,38.15776500013068],[-121.58761299973399,38.157777999915794],[-121.58755199963463,38.15779199989911],[-121.58747299999193,38.157821000057794],[-121.5925679999417,38.16065299972257],[-121.59613599955406,38.15678099994484]]]],"type":"MultiPolygon"},"properties":{"BASENAME":"Isleton","FUNCSTAT":"A","LSADC":"25","MTFCC":"G4110","NAME":"Isleton city","PLACE":"36882","STATE":"06"},"type":"Feature"}],"type":"FeatureCollection"}
