{"features":[{"geometry":{"coordinates":[[-121.56052243923548,38.23853094613986]],"type":"MultiPoint"},"properties":{"OBJECTID":182671,"county_name":"Sacramento","fcode":61500,"gaz_featureclass":"Populated Place","gaz_id":252785,"gaz_name":"Ryde","incounty_id":345359,"isunknowncoords":2,"state_alpha":"CA"},"type":"Feature"},{"geometry":{"coordinates":[[-121.50941053278088,38.25047535122737],[-121.50913283298384,38.248808651176404]],"type":"MultiPoint"},"properties":{"OBJECTID":205993,"county_name":"Sacramento","fcode":61500,"gaz_featureclass":"Populated Place","gaz_id":1656136,"gaz_name":"Locke","incounty_id":1261379,"isunknowncoords":2,"state_alpha":"CA"},"type":"Feature"}],"type":"FeatureCollection"}
